MALLIGYONG-1            
1 58400U 23179A   24122.57420113  .00006497  00000+0  28511-3 0  9998
2 58400  97.4095  10.1262 0011057  71.6498 288.5940 15.22240381 24633
